{
  "type": "FeatureCollection",
  "features": [
    {
      "type": "Feature",
      "properties": {
        "norad_id": 36236,
        "name": "FENGYUN 1C DEB",
        "group": "fengyun-1c-debris",
        "lat": -23.26110288015978,
        "lon": -148.79268007913015,
        "alt_km": 1034.8830446583834,
        "timestamp": "2025-12-21T03:56:51.123279+00:00",
        "meta_object_name": "FENGYUN 1C DEB",
        "meta_object_id": "1999-025DVM",
        "meta_epoch": "2025-12-10T20:13:13.163808",
        "meta_mean_motion": 13.81954009,
        "meta_eccentricity": 0.0149575,
        "meta_inclination": 98.85,
        "meta_ra_of_asc_node": 25.3566,
        "meta_arg_of_pericenter": 3.3066,
        "meta_mean_anomaly": 356.9043,
        "meta_ephemeris_type": 0,
        "meta_classification_type": "U",
        "meta_norad_cat_id": 36236,
        "meta_element_set_no": 999,
        "meta_rev_at_epoch": 59721,
        "meta_bstar": 0.00040381,
        "meta_mean_motion_dot": 4.31e-06,
        "meta_mean_motion_ddot": 0,
        "tle_line1": "1 36236U 99025DVM 25344.84251347  .00000431  00000+0  40381-3 0  9993",
        "tle_line2": "2 36236  98.8500  25.3566 0149575   3.3066 356.9043 13.81954009597212"
      },
      "geometry": {
        "type": "Point",
        "coordinates": [
          -148.79268007913015,
          -23.26110288015978
        ]
      }
    },
    {
      "type": "Feature",
      "properties": {
        "norad_id": 36238,
        "name": "FENGYUN 1C DEB",
        "group": "fengyun-1c-debris",
        "lat": -5.998293608155544,
        "lon": 146.42083033593838,
        "alt_km": 850.0660740070707,
        "timestamp": "2025-12-21T03:56:51.123288+00:00",
        "meta_object_name": "FENGYUN 1C DEB",
        "meta_object_id": "1999-025DVP",
        "meta_epoch": "2025-12-19T15:21:49.148352",
        "meta_mean_motion": 14.12392478,
        "meta_eccentricity": 0.0020073,
        "meta_inclination": 98.6476,
        "meta_ra_of_asc_node": 325.8662,
        "meta_arg_of_pericenter": 261.1573,
        "meta_mean_anomaly": 98.7326,
        "meta_ephemeris_type": 0,
        "meta_classification_type": "U",
        "meta_norad_cat_id": 36238,
        "meta_element_set_no": 999,
        "meta_rev_at_epoch": 87115,
        "meta_bstar": 6.982e-05,
        "meta_mean_motion_dot": 8.7e-07,
        "meta_mean_motion_ddot": 0,
        "tle_line1": "1 36238U 99025DVP 25353.64015218  .00000087  00000+0  69820-4 0  9995",
        "tle_line2": "2 36238  98.6476 325.8662 0020073 261.1573  98.7326 14.12392478871151"
      },
      "geometry": {
        "type": "Point",
        "coordinates": [
          146.42083033593838,
          -5.998293608155544
        ]
      }
    },
    {
      "type": "Feature",
      "properties": {
        "norad_id": 36244,
        "name": "FENGYUN 1C DEB",
        "group": "fengyun-1c-debris",
        "lat": 67.4793491518239,
        "lon": -51.80581633645975,
        "alt_km": 831.9434920897875,
        "timestamp": "2025-12-21T03:56:51.123297+00:00",
        "meta_object_name": "FENGYUN 1C DEB",
        "meta_object_id": "1999-025DVV",
        "meta_epoch": "2025-12-14T06:16:57.462816",
        "meta_mean_motion": 14.24987194,
        "meta_eccentricity": 0.00489535,
        "meta_inclination": 98.9249,
        "meta_ra_of_asc_node": 98.9064,
        "meta_arg_of_pericenter": 280.0452,
        "meta_mean_anomaly": 79.5205,
        "meta_ephemeris_type": 0,
        "meta_classification_type": "U",
        "meta_norad_cat_id": 36244,
        "meta_element_set_no": 999,
        "meta_rev_at_epoch": 92000,
        "meta_bstar": 0.0019822396,
        "meta_mean_motion_dot": 4.653e-05,
        "meta_mean_motion_ddot": 0,
        "tle_line1": "1 36244U 99025DVV 25348.26177619  .00004653  00000+0  19822-2 0  9996",
        "tle_line2": "2 36244  98.9249  98.9064 0048953 280.0452  79.5205 14.24987194920006"
      },
      "geometry": {
        "type": "Point",
        "coordinates": [
          -51.80581633645975,
          67.4793491518239
        ]
      }
    },
    {
      "type": "Feature",
      "properties": {
        "norad_id": 36247,
        "name": "FENGYUN 1C DEB",
        "group": "fengyun-1c-debris",
        "lat": -41.37743652615418,
        "lon": 15.2271800662426,
        "alt_km": 699.7426304633909,
        "timestamp": "2025-12-21T03:56:51.123306+00:00",
        "meta_object_name": "FENGYUN 1C DEB",
        "meta_object_id": "1999-025DVY",
        "meta_epoch": "2025-12-20T18:05:10.718592",
        "meta_mean_motion": 14.33607109,
        "meta_eccentricity": 0.0186705,
        "meta_inclination": 98.2671,
        "meta_ra_of_asc_node": 7.4758,
        "meta_arg_of_pericenter": 9.9017,
        "meta_mean_anomaly": 350.5767,
        "meta_ephemeris_type": 0,
        "meta_classification_type": "U",
        "meta_norad_cat_id": 36247,
        "meta_element_set_no": 999,
        "meta_rev_at_epoch": 70377,
        "meta_bstar": 0.00033143,
        "meta_mean_motion_dot": 1.069e-05,
        "meta_mean_motion_ddot": 0,
        "tle_line1": "1 36247U 99025DVY 25354.75359628  .00001069  00000+0  33143-3 0  9993",
        "tle_line2": "2 36247  98.2671   7.4758 0186705   9.9017 350.5767 14.33607109703772"
      },
      "geometry": {
        "type": "Point",
        "coordinates": [
          15.2271800662426,
          -41.37743652615418
        ]
      }
    },
    {
      "type": "Feature",
      "properties": {
        "norad_id": 36254,
        "name": "FENGYUN 1C DEB",
        "group": "fengyun-1c-debris",
        "lat": 58.102045072630986,
        "lon": -64.20381017611349,
        "alt_km": 478.9339383409979,
        "timestamp": "2025-12-21T03:56:51.123315+00:00",
        "meta_object_name": "FENGYUN 1C DEB",
        "meta_object_id": "1999-025DWF",
        "meta_epoch": "2025-12-05T14:18:33.769152",
        "meta_mean_motion": 15.16034114,
        "meta_eccentricity": 0.00460205,
        "meta_inclination": 99.5281,
        "meta_ra_of_asc_node": 291.8918,
        "meta_arg_of_pericenter": 66.714,
        "meta_mean_anomaly": 293.892,
        "meta_ephemeris_type": 0,
        "meta_classification_type": "U",
        "meta_norad_cat_id": 36254,
        "meta_element_set_no": 999,
        "meta_rev_at_epoch": 60668,
        "meta_bstar": 0.005730812,
        "meta_mean_motion_dot": 0.00114745,
        "meta_mean_motion_ddot": 0,
        "tle_line1": "1 36254U 99025DWF 25339.59622418  .00114745  00000+0  57308-2 0  9990",
        "tle_line2": "2 36254  99.5281 291.8918 0046020  66.7140 293.8920 15.16034114606685"
      },
      "geometry": {
        "type": "Point",
        "coordinates": [
          -64.20381017611349,
          58.102045072630986
        ]
      }
    },
    {
      "type": "Feature",
      "properties": {
        "norad_id": 36255,
        "name": "FENGYUN 1C DEB",
        "group": "fengyun-1c-debris",
        "lat": -6.784517325863785,
        "lon": 95.48057074548093,
        "alt_km": 742.5606741934071,
        "timestamp": "2025-12-21T03:56:51.123324+00:00",
        "meta_object_name": "FENGYUN 1C DEB",
        "meta_object_id": "1999-025DWG",
        "meta_epoch": "2025-12-19T13:28:01.680384",
        "meta_mean_motion": 14.36594643,
        "meta_eccentricity": 0.0064178,
        "meta_inclination": 99.4355,
        "meta_ra_of_asc_node": 274.859,
        "meta_arg_of_pericenter": 143.5444,
        "meta_mean_anomaly": 35.1872,
        "meta_ephemeris_type": 0,
        "meta_classification_type": "U",
        "meta_norad_cat_id": 36255,
        "meta_element_set_no": 999,
        "meta_rev_at_epoch": 64108,
        "meta_bstar": 0.00048244,
        "meta_mean_motion_dot": 1.401e-05,
        "meta_mean_motion_ddot": 0,
        "tle_line1": "1 36255U 99025DWG 25353.56113056  .00001401  00000+0  48244-3 0  9991",
        "tle_line2": "2 36255  99.4355 274.8590 0064178 143.5444  35.1872 14.36594643641084"
      },
      "geometry": {
        "type": "Point",
        "coordinates": [
          95.48057074548093,
          -6.784517325863785
        ]
      }
    },
    {
      "type": "Feature",
      "properties": {
        "norad_id": 36258,
        "name": "FENGYUN 1C DEB",
        "group": "fengyun-1c-debris",
        "lat": 24.65960057444502,
        "lon": 21.459459365452595,
        "alt_km": 610.2503253603745,
        "timestamp": "2025-12-21T03:56:51.123333+00:00",
        "meta_object_name": "FENGYUN 1C DEB",
        "meta_object_id": "1999-025DWK",
        "meta_epoch": "2025-12-20T19:41:37.661856",
        "meta_mean_motion": 14.74886177,
        "meta_eccentricity": 0.0173629,
        "meta_inclination": 99.0861,
        "meta_ra_of_asc_node": 25.287,
        "meta_arg_of_pericenter": 100.6616,
        "meta_mean_anomaly": 261.4194,
        "meta_ephemeris_type": 0,
        "meta_classification_type": "U",
        "meta_norad_cat_id": 36258,
        "meta_element_set_no": 999,
        "meta_rev_at_epoch": 90941,
        "meta_bstar": 0.00018378,
        "meta_mean_motion_dot": 1.499e-05,
        "meta_mean_motion_ddot": 0,
        "tle_line1": "1 36258U 99025DWK 25354.82057479  .00001499  00000+0  18378-3 0  9992",
        "tle_line2": "2 36258  99.0861  25.2870 0173629 100.6616 261.4194 14.74886177909414"
      },
      "geometry": {
        "type": "Point",
        "coordinates": [
          21.459459365452595,
          24.65960057444502
        ]
      }
    }
  ]
}